{"type":"FeatureCollection","features":[{"type":"Feature","properties":{"rank":4},"geometry":{"type":"LineString","coordinates":[[33.762,15.498],[33.799,15.502],[33.881,15.506],[33.927,15.506],[34.079,15.494],[34.153,15.494],[34.24,15.498],[34.434,15.51],[34.492,15.51]]}},{"type":"Feature","properties":{"rank":4},"geometry":{"type":"LineString","coordinates":[[32.764,15.576],[32.801,15.564],[32.895,15.535],[32.908,15.527],[32.92,15.506],[32.928,15.494],[32.957,15.486],[33.015,15.477],[33.069,15.473],[33.143,15.477],[33.176,15.486],[33.209,15.473],[33.23,15.473],[33.258,15.473]]}},{"type":"Feature","properties":{"rank":4},"geometry":{"type":"LineString","coordinates":[[33.258,15.473],[33.329,15.477],[33.37,15.481],[33.399,15.481],[33.518,15.473],[33.555,15.486],[33.593,15.477],[33.663,15.49],[33.762,15.498]]}},{"type":"Feature","properties":{"rank":3},"geometry":{"type":"LineString","coordinates":[[36.368,15.44],[36.381,15.448]]}},{"type":"Feature","properties":{"rank":3},"geometry":{"type":"LineString","coordinates":[[36.348,15.436],[36.368,15.44]]}},{"type":"Feature","properties":{"rank":3},"geometry":{"type":"LineString","coordinates":[[36.125,15.811],[36.125,15.791],[36.113,15.733],[36.117,15.7],[36.129,15.671],[36.17,15.618],[36.207,15.576],[36.228,15.547],[36.265,15.51],[36.273,15.498],[36.302,15.473],[36.339,15.44],[36.348,15.436]]}},{"type":"Feature","properties":{"rank":3},"geometry":{"type":"LineString","coordinates":[[36.348,15.436],[36.344,15.424]]}},{"type":"Feature","properties":{"rank":4},"geometry":{"type":"LineString","coordinates":[[36.409,15.461],[36.475,15.428],[36.504,15.42],[36.554,15.424],[36.595,15.436],[36.624,15.453],[36.64,15.453],[36.64,15.448]]}},{"type":"Feature","properties":{"rank":4},"geometry":{"type":"LineString","coordinates":[[35.824,15.387],[35.844,15.391],[35.956,15.407],[36.096,15.42],[36.137,15.42],[36.203,15.411],[36.253,15.411],[36.302,15.415],[36.335,15.424],[36.344,15.424]]}},{"type":"Feature","properties":{"rank":3},"geometry":{"type":"LineString","coordinates":[[39.045,15.35],[39.049,15.378],[39.07,15.387],[39.078,15.403],[39.066,15.411],[39.066,15.428],[39.074,15.44],[39.103,15.444],[39.119,15.461],[39.127,15.465],[39.127,15.486],[39.14,15.502],[39.16,15.519],[39.189,15.523],[39.189,15.552],[39.222,15.56],[39.243,15.58],[39.284,15.593],[39.313,15.601],[39.404,15.626],[39.424,15.626]]}},{"type":"Feature","properties":{"rank":4},"geometry":{"type":"LineString","coordinates":[[35.7,15.333],[35.725,15.341],[35.811,15.383]]}},{"type":"Feature","properties":{"rank":4},"geometry":{"type":"LineString","coordinates":[[38.468,15.778],[38.484,15.778],[38.534,15.75],[38.554,15.745],[38.571,15.733],[38.591,15.729],[38.608,15.712],[38.628,15.7],[38.666,15.688],[38.682,15.671],[38.715,15.618],[38.744,15.585],[38.773,15.564],[38.802,15.556],[38.826,15.519],[38.831,15.481],[38.88,15.432],[38.897,15.387],[38.905,15.354],[38.921,15.329]]}},{"type":"Feature","properties":{"rank":4},"geometry":{"type":"LineString","coordinates":[[34.694,15.51],[34.706,15.51],[34.789,15.494],[34.863,15.477],[34.949,15.461],[35.114,15.444],[35.18,15.432],[35.213,15.444],[35.238,15.436],[35.308,15.415],[35.399,15.374],[35.42,15.37],[35.486,15.383],[35.589,15.329],[35.609,15.317],[35.63,15.317],[35.7,15.333]]}},{"type":"Feature","properties":{"rank":3},"geometry":{"type":"LineString","coordinates":[[38.921,15.329],[38.946,15.358],[38.954,15.35],[38.967,15.321],[38.987,15.329],[39.008,15.317],[39.016,15.312],[39.037,15.321],[39.045,15.35]]}},{"type":"Feature","properties":{"rank":3},"geometry":{"type":"LineString","coordinates":[[38.925,15.284],[38.917,15.308],[38.921,15.329]]}},{"type":"Feature","properties":{"rank":3},"geometry":{"type":"LineString","coordinates":[[32.512,15.593],[32.5,15.585],[32.467,15.49],[32.467,15.469],[32.475,15.44],[32.495,15.403],[32.512,15.383],[32.541,15.358],[32.553,15.337],[32.553,15.308],[32.541,15.242]]}},{"type":"Feature","properties":{"rank":4},"geometry":{"type":"LineString","coordinates":[[36.69,15.135],[36.698,15.139],[36.715,15.16],[36.744,15.18],[36.785,15.201],[36.814,15.209],[36.855,15.218],[36.876,15.218],[36.933,15.197],[36.954,15.197],[36.966,15.205],[36.995,15.193],[37.024,15.185],[37.045,15.193],[37.057,15.193],[37.09,15.176]]}},{"type":"Feature","properties":{"rank":4},"geometry":{"type":"LineString","coordinates":[[36.64,15.448],[36.64,15.35],[36.632,15.267],[36.636,15.238],[36.645,15.209],[36.657,15.189],[36.682,15.164],[36.69,15.135]]}},{"type":"Feature","properties":{"rank":4},"geometry":{"type":"LineString","coordinates":[[37.585,15.123],[37.568,15.185],[37.568,15.197],[37.581,15.238],[37.618,15.275],[37.643,15.308],[37.651,15.329],[37.663,15.35],[37.688,15.366],[37.709,15.383],[37.729,15.415],[37.746,15.436],[37.779,15.453],[37.832,15.473],[37.849,15.49],[37.865,15.51],[37.878,15.539]]}},{"type":"Feature","properties":{"rank":4},"geometry":{"type":"LineString","coordinates":[[37.552,15.094],[37.568,15.094],[37.585,15.11],[37.585,15.123]]}},{"type":"Feature","properties":{"rank":3},"geometry":{"type":"LineString","coordinates":[[39.016,15.086],[39.008,15.094],[38.996,15.152],[38.983,15.185],[38.971,15.189],[38.967,15.197],[38.967,15.218],[38.946,15.23],[38.934,15.251],[38.925,15.284]]}},{"type":"Feature","properties":{"rank":4},"geometry":{"type":"LineString","coordinates":[[37.09,15.176],[37.098,15.172],[37.14,15.18],[37.181,15.16],[37.201,15.156],[37.251,15.119],[37.272,15.114],[37.329,15.119],[37.346,15.102],[37.366,15.09],[37.387,15.094],[37.416,15.081],[37.436,15.094],[37.465,15.098],[37.486,15.11],[37.507,15.098],[37.527,15.094],[37.552,15.094]]}},{"type":"Feature","properties":{"rank":3},"geometry":{"type":"LineString","coordinates":[[39.049,15.065],[39.024,15.077],[39.016,15.086]]}},{"type":"Feature","properties":{"rank":3},"geometry":{"type":"LineString","coordinates":[[33.172,15.061],[33.159,15.09],[33.131,15.11],[33.098,15.139],[33.065,15.18],[33.056,15.201],[33.027,15.226],[32.999,15.242],[32.957,15.255],[32.937,15.267],[32.895,15.284],[32.838,15.312],[32.805,15.329],[32.78,15.337],[32.726,15.341],[32.714,15.35],[32.656,15.411],[32.627,15.44],[32.594,15.481],[32.582,15.498],[32.561,15.527],[32.549,15.539],[32.516,15.58],[32.512,15.593]]}},{"type":"Feature","properties":{"rank":4},"geometry":{"type":"LineString","coordinates":[[38.925,15.284],[38.884,15.263],[38.88,15.251],[38.859,15.205],[38.855,15.185],[38.859,15.156],[38.847,15.127],[38.839,15.094],[38.814,15.057]]}},{"type":"Feature","properties":{"rank":3},"geometry":{"type":"LineString","coordinates":[[36.344,15.424],[36.344,15.411],[36.315,15.383],[36.298,15.37],[36.257,15.333],[36.207,15.284],[36.166,15.242],[36.133,15.218],[36.104,15.189],[36.051,15.131],[36.018,15.106],[35.968,15.073],[35.931,15.053]]}},{"type":"Feature","properties":{"rank":3},"geometry":{"type":"LineString","coordinates":[[35.931,15.053],[35.886,15.024],[35.857,14.999],[35.836,14.954]]}},{"type":"Feature","properties":{"rank":3},"geometry":{"type":"LineString","coordinates":[[32.541,15.242],[32.528,15.16],[32.524,15.131],[32.508,15.094],[32.495,15.048],[32.471,14.962],[32.45,14.916]]}},{"type":"Feature","properties":{"rank":4},"geometry":{"type":"LineString","coordinates":[[38.814,15.057],[38.806,15.04],[38.814,15.02],[38.814,15.003],[38.798,14.966],[38.798,14.945],[38.806,14.916],[38.81,14.892]]}},{"type":"Feature","properties":{"rank":3},"geometry":{"type":"LineString","coordinates":[[33.296,14.756],[33.287,14.772],[33.246,14.817],[33.201,14.883],[33.205,14.904],[33.192,14.941],[33.197,14.982],[33.188,15.011],[33.172,15.032],[33.172,15.061]]}},{"type":"Feature","properties":{"rank":4},"geometry":{"type":"LineString","coordinates":[[38.81,14.892],[38.806,14.846],[38.822,14.817],[38.826,14.797],[38.835,14.78],[38.839,14.747],[38.839,14.718],[38.851,14.69],[38.847,14.648],[38.826,14.628]]}},{"type":"Feature","properties":{"rank":3},"geometry":{"type":"LineString","coordinates":[[32.45,14.916],[32.442,14.9],[32.401,14.896],[32.372,14.875],[32.335,14.809],[32.293,14.751],[32.277,14.735],[32.269,14.718],[32.264,14.669],[32.26,14.648],[32.24,14.591],[32.236,14.578]]}},{"type":"Feature","properties":{"rank":3},"geometry":{"type":"LineString","coordinates":[[33.489,14.422],[33.469,14.459],[33.44,14.5],[33.403,14.549],[33.395,14.578],[33.362,14.624],[33.341,14.677],[33.312,14.702],[33.3,14.723],[33.296,14.756]]}},{"type":"Feature","properties":{"rank":3},"geometry":{"type":"LineString","coordinates":[[33.617,14.471],[33.593,14.467],[33.547,14.45],[33.498,14.413]]}},{"type":"Feature","properties":{"rank":3},"geometry":{"type":"LineString","coordinates":[[33.498,14.413],[33.489,14.422]]}},{"type":"Feature","properties":{"rank":3},"geometry":{"type":"LineString","coordinates":[[35.836,14.954],[35.828,14.929],[35.82,14.879],[35.811,14.842],[35.807,14.78],[35.795,14.735],[35.791,14.702],[35.791,14.644],[35.795,14.611],[35.799,14.591],[35.828,14.533],[35.853,14.467],[35.865,14.434],[35.865,14.401]]}},{"type":"Feature","properties":{"rank":3},"geometry":{"type":"LineString","coordinates":[[33.729,14.29],[33.7,14.331],[33.646,14.446],[33.617,14.471]]}},{"type":"Feature","properties":{"rank":3},"geometry":{"type":"LineString","coordinates":[[39.457,14.281],[39.424,14.351],[39.396,14.368],[39.391,14.389],[39.363,14.417],[39.35,14.446],[39.358,14.479],[39.375,14.508],[39.383,14.529],[39.383,14.558],[39.371,14.578],[39.371,14.599],[39.379,14.615],[39.396,14.636],[39.391,14.665],[39.42,14.702],[39.416,14.731],[39.42,14.756],[39.416,14.768],[39.4,14.784],[39.396,14.805],[39.375,14.822],[39.346,14.879],[39.317,14.879],[39.292,14.908],[39.231,14.941],[39.202,14.999],[39.189,15.036],[39.169,15.044],[39.148,15.036],[39.099,15.044],[39.07,15.057],[39.049,15.065]]}},{"type":"Feature","properties":{"rank":4},"geometry":{"type":"LineString","coordinates":[[39.457,14.281],[39.424,14.277],[39.412,14.257],[39.391,14.248],[39.375,14.228],[39.363,14.228],[39.342,14.24],[39.321,14.265],[39.301,14.261],[39.276,14.29],[39.231,14.327],[39.214,14.314],[39.193,14.318],[39.185,14.314],[39.156,14.285],[39.14,14.281]]}},{"type":"Feature","properties":{"rank":4},"geometry":{"type":"LineString","coordinates":[[39.14,14.281],[39.082,14.265],[39.066,14.273],[39.02,14.244],[38.987,14.219],[38.963,14.219],[38.93,14.215],[38.909,14.207],[38.884,14.186]]}},{"type":"Feature","properties":{"rank":4},"geometry":{"type":"LineString","coordinates":[[38.826,14.628],[38.818,14.619],[38.818,14.595],[38.806,14.582],[38.781,14.582],[38.76,14.566],[38.752,14.545],[38.752,14.537],[38.769,14.516],[38.765,14.488],[38.781,14.459],[38.789,14.401],[38.802,14.36],[38.802,14.331],[38.818,14.298],[38.826,14.281],[38.876,14.224],[38.884,14.215],[38.884,14.186]]}},{"type":"Feature","properties":{"rank":3},"geometry":{"type":"LineString","coordinates":[[33.869,14.145],[33.848,14.166],[33.815,14.207],[33.774,14.236],[33.757,14.252],[33.729,14.29]]}},{"type":"Feature","properties":{"rank":3},"geometry":{"type":"LineString","coordinates":[[39.561,14.092],[39.569,14.108],[39.569,14.129],[39.556,14.145],[39.552,14.182],[39.544,14.203],[39.507,14.219],[39.47,14.257],[39.457,14.281]]}},{"type":"Feature","properties":{"rank":4},"geometry":{"type":"LineString","coordinates":[[38.884,14.186],[38.876,14.178],[38.847,14.158],[38.835,14.162],[38.81,14.145],[38.777,14.133],[38.74,14.137],[38.719,14.133],[38.678,14.104],[38.657,14.108],[38.624,14.12],[38.616,14.112],[38.604,14.116],[38.583,14.129],[38.562,14.125],[38.529,14.116],[38.459,14.116],[38.439,14.112],[38.422,14.092],[38.41,14.083],[38.385,14.087],[38.364,14.087],[38.34,14.079],[38.323,14.092],[38.319,14.112],[38.307,14.12],[38.294,14.12],[38.286,14.116]]}},{"type":"Feature","properties":{"rank":3},"geometry":{"type":"LineString","coordinates":[[35.865,14.401],[35.844,14.364],[35.84,14.343],[35.836,14.298],[35.828,14.281],[35.816,14.273],[35.745,14.252],[35.721,14.248],[35.688,14.244],[35.667,14.236],[35.601,14.199],[35.543,14.158],[35.477,14.1],[35.457,14.087],[35.436,14.087],[35.416,14.075],[35.383,14.05]]}},{"type":"Feature","properties":{"rank":3},"geometry":{"type":"LineString","coordinates":[[32.236,14.578],[32.227,14.52],[32.252,14.5],[32.26,14.492],[32.264,14.455],[32.277,14.413],[32.277,14.401],[32.269,14.372],[32.339,14.252],[32.351,14.224],[32.368,14.17],[32.388,14.071],[32.392,14.034]]}},{"type":"Feature","properties":{"rank":3},"geometry":{"type":"LineString","coordinates":[[35.383,14.05],[35.354,14.063],[35.304,14.067],[35.267,14.067],[35.226,14.059],[35.176,14.046],[35.11,14.026],[35.069,14.021],[35.036,14.017],[35.015,14.013],[34.966,14.026],[34.937,14.021],[34.883,14.009],[34.801,13.988],[34.739,13.98],[34.706,13.98],[34.628,13.976],[34.504,13.988],[34.442,14.009],[34.384,14.026],[34.335,14.038],[34.323,14.046],[34.186,14.092],[34.141,14.108],[34.092,14.112],[34.075,14.125],[34.054,14.125],[34.034,14.112],[33.988,14.108],[33.947,14.112],[33.902,14.125],[33.869,14.145]]}},{"type":"Feature","properties":{"rank":3},"geometry":{"type":"LineString","coordinates":[[39.577,13.696],[39.589,13.733],[39.598,13.786],[39.598,13.848],[39.594,13.91],[39.598,13.993],[39.594,14.021],[39.585,14.042],[39.561,14.071],[39.561,14.092]]}},{"type":"Feature","properties":{"rank":3},"geometry":{"type":"LineString","coordinates":[[39.561,13.584],[39.565,13.63],[39.569,13.638],[39.565,13.675],[39.577,13.696]]}},{"type":"Feature","properties":{"rank":4},"geometry":{"type":"LineString","coordinates":[[33.498,14.413],[33.514,14.372],[33.547,14.323],[33.576,14.302],[33.584,14.29],[33.597,14.244],[33.588,14.203],[33.601,14.182],[33.621,14.166],[33.634,14.145],[33.642,14.104],[33.634,14.083],[33.617,14.067],[33.609,14.046],[33.601,14.017],[33.601,14.001],[33.576,13.964],[33.568,13.931],[33.547,13.881],[33.527,13.848],[33.51,13.819],[33.498,13.782],[33.498,13.712],[33.506,13.617],[33.522,13.593],[33.547,13.572]]}},{"type":"Feature","properties":{"rank":4},"geometry":{"type":"LineString","coordinates":[[33.547,13.572],[33.588,13.555]]}},{"type":"Feature","properties":{"rank":3},"geometry":{"type":"LineString","coordinates":[[39.552,13.465],[39.552,13.535],[39.561,13.584]]}},{"type":"Feature","properties":{"rank":4},"geometry":{"type":"LineString","coordinates":[[33.547,13.572],[33.498,13.527],[33.469,13.51],[33.407,13.485],[33.382,13.477],[33.337,13.452]]}},{"type":"Feature","properties":{"rank":4},"geometry":{"type":"LineString","coordinates":[[33.337,13.452],[33.275,13.428]]}},{"type":"Feature","properties":{"rank":3},"geometry":{"type":"LineString","coordinates":[[39.507,13.25],[39.507,13.291],[39.515,13.337],[39.523,13.357],[39.523,13.39],[39.532,13.411],[39.552,13.448],[39.552,13.465]]}},{"type":"Feature","properties":{"rank":4},"geometry":{"type":"LineString","coordinates":[[33.275,13.428],[33.192,13.386],[33.11,13.353],[33.065,13.329],[33.023,13.304],[32.982,13.283],[32.887,13.238],[32.825,13.209],[32.797,13.197],[32.739,13.18]]}},{"type":"Feature","properties":{"rank":3},"geometry":{"type":"LineString","coordinates":[[32.392,14.034],[32.409,13.943],[32.425,13.906],[32.45,13.877],[32.479,13.848],[32.487,13.819],[32.495,13.774],[32.5,13.757],[32.516,13.724],[32.59,13.646],[32.619,13.625],[32.632,13.597],[32.632,13.539],[32.644,13.489],[32.648,13.452],[32.64,13.403],[32.636,13.374],[32.64,13.337],[32.644,13.308],[32.673,13.23],[32.685,13.209],[32.714,13.188],[32.722,13.18]]}},{"type":"Feature","properties":{"rank":4},"geometry":{"type":"LineString","coordinates":[[32.722,13.18],[32.722,13.168],[32.693,13.176],[32.669,13.172],[32.652,13.168]]}},{"type":"Feature","properties":{"rank":4},"geometry":{"type":"LineString","coordinates":[[32.739,13.18],[32.772,13.164],[32.788,13.139]]}},{"type":"Feature","properties":{"rank":3},"geometry":{"type":"LineString","coordinates":[[39.495,13.114],[39.495,13.139],[39.515,13.188],[39.507,13.25]]}},{"type":"Feature","properties":{"rank":3},"geometry":{"type":"LineString","coordinates":[[32.652,13.168],[32.627,13.164],[32.561,13.118],[32.512,13.081],[32.479,13.06],[32.462,13.052],[32.392,13.044],[32.326,13.032],[32.26,13.023],[32.182,13.023],[32.153,13.023],[32.005,13.027],[31.934,13.027],[31.864,13.019]]}},{"type":"Feature","properties":{"rank":4},"geometry":{"type":"LineString","coordinates":[[42.724,13.007],[42.728,12.999],[42.72,12.966],[42.707,12.953]]}},{"type":"Feature","properties":{"rank":3},"geometry":{"type":"LineString","coordinates":[[35.383,14.038],[35.391,14.034],[35.411,14.03],[35.42,14.026],[35.465,13.955],[35.502,13.922],[35.556,13.885],[35.576,13.865],[35.618,13.795],[35.642,13.766],[35.659,13.733],[35.721,13.63],[35.754,13.572],[35.758,13.551],[35.766,13.502],[35.787,13.448],[35.82,13.395],[35.828,13.374],[35.832,13.345],[35.84,13.324],[35.853,13.308],[35.861,13.254],[35.869,13.246],[35.894,13.23],[35.91,13.209],[35.923,13.155],[35.935,13.139],[35.976,13.118],[36.018,13.065],[36.047,13.044],[36.133,12.953],[36.154,12.945]]}},{"type":"Feature","properties":{"rank":3},"geometry":{"type":"LineString","coordinates":[[36.154,12.945],[36.179,12.916],[36.236,12.875],[36.278,12.854],[36.298,12.838]]}},{"type":"Feature","properties":{"rank":3},"geometry":{"type":"LineString","coordinates":[[39.54,12.776],[39.544,12.829],[39.561,12.854],[39.561,12.867],[39.552,12.883],[39.528,12.9],[39.519,12.908],[39.515,12.953],[39.536,12.994],[39.536,13.003],[39.503,13.04],[39.49,13.081],[39.495,13.114]]}},{"type":"Feature","properties":{"rank":4},"geometry":{"type":"LineString","coordinates":[[38.286,14.116],[38.278,14.096],[38.249,14.079],[38.232,14.063],[38.232,14.034],[38.208,14.005],[38.195,13.984],[38.195,13.96],[38.175,13.931],[38.171,13.91],[38.175,13.869],[38.179,13.856],[38.199,13.848],[38.204,13.836],[38.208,13.786],[38.212,13.757],[38.187,13.729],[38.175,13.696],[38.158,13.667],[38.162,13.65],[38.142,13.617],[38.134,13.576],[38.117,13.547],[38.113,13.527],[38.117,13.506],[38.109,13.485],[38.088,13.481],[38.043,13.419],[38.01,13.407],[37.985,13.382],[37.96,13.374],[37.944,13.362],[37.923,13.345],[37.89,13.345],[37.87,13.333],[37.853,13.312],[37.857,13.296],[37.865,13.287],[37.874,13.267],[37.89,13.25],[37.878,13.213],[37.878,13.205],[37.894,13.176],[37.894,13.155],[37.89,13.126],[37.878,13.118],[37.857,13.114],[37.837,13.102],[37.816,13.06],[37.787,13.023],[37.783,13.011],[37.746,12.961],[37.733,12.92],[37.725,12.858],[37.696,12.821],[37.688,12.801],[37.651,12.772],[37.601,12.763],[37.548,12.755],[37.527,12.743],[37.515,12.726],[37.498,12.722],[37.49,12.714],[37.498,12.665],[37.478,12.64],[37.474,12.627]]}},{"type":"Feature","properties":{"rank":4},"geometry":{"type":"LineString","coordinates":[[32.788,13.139],[32.813,13.089],[32.829,13.04],[32.834,13.007],[32.834,12.986],[32.825,12.97],[32.797,12.941],[32.784,12.924],[32.776,12.887],[32.78,12.838],[32.776,12.809],[32.776,12.772],[32.797,12.706],[32.805,12.665],[32.829,12.582]]}},{"type":"Feature","properties":{"rank":3},"geometry":{"type":"LineString","coordinates":[[37.474,12.627],[37.461,12.603],[37.432,12.57],[37.424,12.545]]}},{"type":"Feature","properties":{"rank":4},"geometry":{"type":"LineString","coordinates":[[37.061,12.537],[37.107,12.545],[37.181,12.537],[37.263,12.537],[37.321,12.528],[37.342,12.533],[37.383,12.545],[37.399,12.549],[37.424,12.545]]}},{"type":"Feature","properties":{"rank":3},"geometry":{"type":"LineString","coordinates":[[37.424,12.545],[37.428,12.524]]}},{"type":"Feature","properties":{"rank":3},"geometry":{"type":"LineString","coordinates":[[36.298,12.838],[36.319,12.821],[36.356,12.805],[36.372,12.788],[36.405,12.772],[36.43,12.747],[36.451,12.735],[36.471,12.714],[36.517,12.677],[36.537,12.665],[36.55,12.644],[36.558,12.64],[36.612,12.64],[36.624,12.64],[36.645,12.652],[36.665,12.66],[36.686,12.656],[36.702,12.644],[36.723,12.607],[36.752,12.599],[36.772,12.586],[36.843,12.582],[36.888,12.561],[36.921,12.557],[36.958,12.533],[36.966,12.524],[36.995,12.508],[37.008,12.504],[37.02,12.52],[37.061,12.537]]}},{"type":"Feature","properties":{"rank":3},"geometry":{"type":"LineString","coordinates":[[39.519,12.487],[39.511,12.504],[39.507,12.537],[39.528,12.59],[39.519,12.611],[39.532,12.64],[39.536,12.693],[39.528,12.735],[39.528,12.759],[39.54,12.776]]}},{"type":"Feature","properties":{"rank":3},"geometry":{"type":"LineString","coordinates":[[39.635,12.165],[39.614,12.227],[39.594,12.322],[39.585,12.343],[39.569,12.372],[39.548,12.434],[39.532,12.454],[39.519,12.475],[39.519,12.487]]}},{"type":"Feature","properties":{"rank":3},"geometry":{"type":"LineString","coordinates":[[37.428,12.524],[37.428,12.508],[37.441,12.487],[37.469,12.487],[37.502,12.446],[37.511,12.417],[37.527,12.413],[37.544,12.392],[37.568,12.347],[37.597,12.289],[37.626,12.248],[37.634,12.219],[37.643,12.207],[37.684,12.186],[37.738,12.153],[37.742,12.141],[37.762,12.137],[37.771,12.128],[37.771,12.116]]}},{"type":"Feature","properties":{"rank":4},"geometry":{"type":"LineString","coordinates":[[42.707,12.953],[42.658,12.916],[42.604,12.891],[42.584,12.875],[42.559,12.846],[42.534,12.817],[42.497,12.776],[42.46,12.739],[42.411,12.714],[42.39,12.706],[42.349,12.698],[42.312,12.702],[42.291,12.689],[42.274,12.66],[42.274,12.611],[42.25,12.561],[42.237,12.533],[42.229,12.524],[42.221,12.495],[42.192,12.471],[42.18,12.45],[42.188,12.429],[42.184,12.421],[42.147,12.38],[42.114,12.326],[42.093,12.297],[42.081,12.231],[42.072,12.203],[42.06,12.182],[42.064,12.153],[42.048,12.137],[42.039,12.141],[42.027,12.132],[42.01,12.116],[41.982,12.099]]}},{"type":"Feature","properties":{"rank":3},"geometry":{"type":"LineString","coordinates":[[37.771,12.116],[37.713,12.025],[37.705,11.996],[37.705,11.976]]}},{"type":"Feature","properties":{"rank":4},"geometry":{"type":"LineString","coordinates":[[41.33,11.955],[41.285,11.955]]}},{"type":"Feature","properties":{"rank":4},"geometry":{"type":"LineString","coordinates":[[41.982,12.099],[41.973,12.087],[41.94,12.071],[41.911,12.046],[41.895,12.017],[41.878,12.0],[41.85,11.976],[41.829,11.959],[41.821,11.939],[41.829,11.922],[41.825,11.914],[41.8,11.906]]}},{"type":"Feature","properties":{"rank":3},"geometry":{"type":"LineString","coordinates":[[41.8,11.906],[41.779,11.901],[41.751,11.91],[41.718,11.897],[41.697,11.881],[41.676,11.873],[41.656,11.885],[41.627,11.889],[41.586,11.91],[41.544,11.914],[41.478,11.922],[41.458,11.934],[41.437,11.939],[41.408,11.955],[41.388,11.963],[41.363,11.959],[41.33,11.955]]}},{"type":"Feature","properties":{"rank":4},"geometry":{"type":"LineString","coordinates":[[38.014,11.86],[37.973,11.877],[37.898,11.918],[37.878,11.934],[37.841,11.972],[37.799,11.988],[37.758,11.988],[37.705,11.976]]}},{"type":"Feature","properties":{"rank":3},"geometry":{"type":"LineString","coordinates":[[39.602,11.823],[39.61,11.831],[39.643,11.835],[39.672,11.864],[39.676,11.885],[39.676,11.906],[39.655,11.955],[39.643,11.984],[39.631,12.017],[39.631,12.05],[39.622,12.071],[39.622,12.104],[39.635,12.145],[39.635,12.165]]}},{"type":"Feature","properties":{"rank":3},"geometry":{"type":"LineString","coordinates":[[39.61,11.798],[39.602,11.823]]}},{"type":"Feature","properties":{"rank":4},"geometry":{"type":"LineString","coordinates":[[32.829,12.582],[32.825,12.549],[32.817,12.533],[32.813,12.504],[32.813,12.442],[32.813,12.413],[32.805,12.372],[32.792,12.343],[32.772,12.297],[32.764,12.269],[32.764,12.248],[32.78,12.165],[32.78,12.145],[32.776,12.066],[32.772,12.038],[32.755,11.972],[32.751,11.951],[32.764,11.91],[32.78,11.889],[32.788,11.868],[32.797,11.749]]}},{"type":"Feature","properties":{"rank":4},"geometry":{"type":"LineString","coordinates":[[39.602,11.823],[39.573,11.823],[39.519,11.803],[39.486,11.79],[39.466,11.786],[39.449,11.77],[39.437,11.753],[39.424,11.753],[39.4,11.774],[39.379,11.774],[39.367,11.782],[39.358,11.798],[39.342,11.815],[39.321,11.819],[39.264,11.815],[39.181,11.72],[39.16,11.704],[39.119,11.675],[39.111,11.675],[39.09,11.683],[39.07,11.671],[39.045,11.633],[39.02,11.617]]}},{"type":"Feature","properties":{"rank":3},"geometry":{"type":"LineString","coordinates":[[37.705,11.976],[37.705,11.947],[37.7,11.926],[37.688,11.922],[37.676,11.889],[37.647,11.848],[37.639,11.84],[37.585,11.815],[37.564,11.798],[37.552,11.765],[37.502,11.72],[37.494,11.699],[37.474,11.691],[37.461,11.671],[37.453,11.654],[37.449,11.613],[37.436,11.592],[37.412,11.588],[37.375,11.592]]}},{"type":"Feature","properties":{"rank":4},"geometry":{"type":"LineString","coordinates":[[39.02,11.617],[38.967,11.588],[38.946,11.584],[38.925,11.592],[38.913,11.609],[38.905,11.613],[38.855,11.617],[38.839,11.633],[38.818,11.662],[38.781,11.671],[38.773,11.675],[38.748,11.716],[38.76,11.737],[38.752,11.757],[38.723,11.778],[38.703,11.807],[38.674,11.807],[38.604,11.815],[38.571,11.807],[38.554,11.79],[38.534,11.778],[38.517,11.753],[38.505,11.749],[38.476,11.753],[38.463,11.72],[38.443,11.724],[38.414,11.741],[38.393,11.737],[38.373,11.724],[38.352,11.728],[38.323,11.741],[38.298,11.732],[38.27,11.741],[38.274,11.757],[38.265,11.778],[38.245,11.782],[38.216,11.807],[38.208,11.807],[38.187,11.798],[38.158,11.794],[38.138,11.798],[38.109,11.819],[38.08,11.823],[38.051,11.844],[38.014,11.86]]}},{"type":"Feature","properties":{"rank":3},"geometry":{"type":"LineString","coordinates":[[42.881,11.51],[42.976,11.539],[43.017,11.551],[43.075,11.555],[43.095,11.559],[43.141,11.58]]}},{"type":"Feature","properties":{"rank":3},"geometry":{"type":"LineString","coordinates":[[41.8,11.906],[41.817,11.873],[41.837,11.848],[41.837,11.807],[41.845,11.774],[41.866,11.745],[41.87,11.728],[41.85,11.72],[41.845,11.704],[41.854,11.695],[41.895,11.671],[41.953,11.629],[41.973,11.596],[41.998,11.567],[42.031,11.543],[42.035,11.534],[42.072,11.489],[42.093,11.477]]}},{"type":"Feature","properties":{"rank":3},"geometry":{"type":"LineString","coordinates":[[42.757,11.411],[42.778,11.431],[42.798,11.435],[42.819,11.452],[42.839,11.481],[42.881,11.51]]}},{"type":"Feature","properties":{"rank":4},"geometry":{"type":"LineString","coordinates":[[42.427,11.514],[42.431,11.481],[42.448,11.468],[42.464,11.464],[42.493,11.468],[42.526,11.448],[42.551,11.435],[42.576,11.427],[42.617,11.419],[42.712,11.419],[42.745,11.415],[42.757,11.411]]}},{"type":"Feature","properties":{"rank":3},"geometry":{"type":"LineString","coordinates":[[41.285,11.955],[41.264,11.947],[41.202,11.91],[41.177,11.897],[41.082,11.815],[41.041,11.807],[41.021,11.798],[41.004,11.761],[40.983,11.741],[40.959,11.724],[40.95,11.695],[40.95,11.662],[40.942,11.633],[40.922,11.605],[40.889,11.605],[40.86,11.555],[40.819,11.518],[40.79,11.485],[40.757,11.427],[40.736,11.369],[40.724,11.349]]}},{"type":"Feature","properties":{"rank":3},"geometry":{"type":"LineString","coordinates":[[37.375,11.592],[37.366,11.592],[37.35,11.58],[37.329,11.563],[37.317,11.543],[37.284,11.477],[37.267,11.456],[37.255,11.448],[37.197,11.423],[37.173,11.419],[37.144,11.398],[37.115,11.394],[37.094,11.39],[37.057,11.369],[37.028,11.353],[37.008,11.349],[36.975,11.353],[36.954,11.345]]}},{"type":"Feature","properties":{"rank":4},"geometry":{"type":"LineString","coordinates":[[43.24,11.456],[43.297,11.435],[43.314,11.427],[43.359,11.382],[43.405,11.345],[43.433,11.336],[43.462,11.332],[43.466,11.324],[43.458,11.295]]}},{"type":"Feature","properties":{"rank":4},"geometry":{"type":"LineString","coordinates":[[42.666,11.287],[42.674,11.316],[42.67,11.336],[42.683,11.341],[42.716,11.345],[42.745,11.365],[42.753,11.394],[42.757,11.411]]}},{"type":"Feature","properties":{"rank":3},"geometry":{"type":"LineString","coordinates":[[39.684,11.233],[39.68,11.287],[39.672,11.336],[39.655,11.378],[39.639,11.398],[39.61,11.44],[39.614,11.477],[39.61,11.518],[39.614,11.526],[39.655,11.555],[39.664,11.584],[39.672,11.596],[39.676,11.621],[39.655,11.671],[39.66,11.683],[39.664,11.712],[39.651,11.728],[39.635,11.741],[39.606,11.761],[39.598,11.77],[39.61,11.79],[39.61,11.798]]}},{"type":"Feature","properties":{"rank":3},"geometry":{"type":"LineString","coordinates":[[39.639,11.134],[39.651,11.151],[39.68,11.167],[39.688,11.2],[39.684,11.233]]}},{"type":"Feature","properties":{"rank":3},"geometry":{"type":"LineString","coordinates":[[39.635,11.11],[39.639,11.134]]}},{"type":"Feature","properties":{"rank":3},"geometry":{"type":"LineString","coordinates":[[42.093,11.477],[42.118,11.456],[42.122,11.427],[42.13,11.419],[42.159,11.398],[42.163,11.378],[42.167,11.336],[42.175,11.328],[42.196,11.316],[42.217,11.287],[42.237,11.27],[42.258,11.237],[42.291,11.196],[42.312,11.155],[42.332,11.126],[42.345,11.105],[42.353,11.097],[42.369,11.101],[42.373,11.11],[42.415,11.122],[42.423,11.13],[42.452,11.138],[42.489,11.159],[42.514,11.163],[42.526,11.167],[42.559,11.204],[42.604,11.242],[42.666,11.287]]}},{"type":"Feature","properties":{"rank":3},"geometry":{"type":"LineString","coordinates":[[39.738,11.077],[39.73,11.085],[39.709,11.089],[39.68,11.101],[39.66,11.093],[39.639,11.101],[39.635,11.11]]}},{"type":"Feature","properties":{"rank":3},"geometry":{"type":"LineString","coordinates":[[36.954,11.345],[36.933,11.328],[36.925,11.303],[36.9,11.275],[36.88,11.262],[36.859,11.266],[36.847,11.246],[36.859,11.217],[36.855,11.184],[36.855,11.155],[36.867,11.118],[36.88,11.085],[36.884,11.06],[36.884,11.039],[36.909,10.973],[36.929,10.945]]}},{"type":"Feature","properties":{"rank":3},"geometry":{"type":"LineString","coordinates":[[36.929,10.945],[36.937,10.932],[36.962,10.895],[37.012,10.854],[37.028,10.842],[37.045,10.821],[37.053,10.776],[37.053,10.738],[37.057,10.722],[37.065,10.714]]}},{"type":"Feature","properties":{"rank":4},"geometry":{"type":"LineString","coordinates":[[43.458,11.295],[43.446,11.254],[43.438,11.213],[43.442,11.184],[43.442,11.143],[43.442,11.122],[43.454,11.093],[43.458,11.052],[43.454,11.023],[43.442,10.994],[43.433,10.973],[43.413,10.957],[43.372,10.924],[43.33,10.899],[43.285,10.87],[43.248,10.833],[43.19,10.755],[43.161,10.726],[43.128,10.685],[43.116,10.677],[43.087,10.635],[43.066,10.606],[43.05,10.582],[42.988,10.561],[42.963,10.549],[42.918,10.532],[42.905,10.528]]}},{"type":"Feature","properties":{"rank":4},"geometry":{"type":"LineString","coordinates":[[32.797,11.749],[32.797,11.691],[32.801,11.638],[32.788,11.609],[32.768,11.567],[32.755,11.522],[32.743,11.489],[32.726,11.419],[32.689,11.382],[32.677,11.357],[32.669,11.328],[32.665,11.308],[32.673,11.287],[32.681,11.266],[32.689,11.242],[32.689,11.204],[32.698,11.159],[32.693,11.143],[32.689,11.118],[32.685,11.077],[32.698,11.023],[32.71,10.986],[32.714,10.965],[32.71,10.936],[32.693,10.908],[32.66,10.891],[32.636,10.862],[32.619,10.829],[32.607,10.8],[32.599,10.771],[32.599,10.734],[32.586,10.697],[32.586,10.644],[32.574,10.594],[32.582,10.557],[32.582,10.545],[32.566,10.483],[32.557,10.474],[32.537,10.462]]}},{"type":"Feature","properties":{"rank":3},"geometry":{"type":"LineString","coordinates":[[37.065,10.714],[37.135,10.693],[37.185,10.689],[37.218,10.677],[37.28,10.677],[37.317,10.672],[37.354,10.672],[37.383,10.656],[37.391,10.648],[37.399,10.631],[37.416,10.615],[37.432,10.578],[37.469,10.573],[37.49,10.565],[37.507,10.536],[37.519,10.507],[37.535,10.491],[37.556,10.483],[37.564,10.474],[37.552,10.433],[37.556,10.408],[37.573,10.4],[37.577,10.388],[37.606,10.367],[37.639,10.367],[37.659,10.351],[37.676,10.359],[37.709,10.347],[37.721,10.334]]}},{"type":"Feature","properties":{"rank":4},"geometry":{"type":"LineString","coordinates":[[37.721,10.334],[37.729,10.33]]}},{"type":"Feature","properties":{"rank":3},"geometry":{"type":"LineString","coordinates":[[37.729,10.33],[37.746,10.318],[37.746,10.305],[37.766,10.289],[37.795,10.293],[37.832,10.26],[37.853,10.252],[37.911,10.243],[37.927,10.252],[37.956,10.243],[37.977,10.231],[37.997,10.223],[38.022,10.227],[38.084,10.252],[38.105,10.252],[38.129,10.223]]}},{"type":"Feature","properties":{"rank":3},"geometry":{"type":"LineString","coordinates":[[39.746,9.86],[39.754,9.852],[39.775,9.848],[39.804,9.864],[39.845,9.926],[39.858,9.955],[39.866,9.963],[39.94,10.041],[39.965,10.083],[39.965,10.091],[39.965,10.128],[39.977,10.202],[39.985,10.215],[40.006,10.231],[40.006,10.239],[39.985,10.256],[39.977,10.272],[39.981,10.326],[39.94,10.355],[39.936,10.392],[39.94,10.425],[39.932,10.45],[39.936,10.47],[39.94,10.491],[39.948,10.528],[39.944,10.536],[39.915,10.565],[39.911,10.578],[39.919,10.594],[39.924,10.627],[39.907,10.664],[39.886,10.697],[39.87,10.71],[39.841,10.714],[39.833,10.747],[39.829,10.78],[39.825,10.804],[39.816,10.821],[39.808,10.854],[39.808,10.887],[39.787,10.92],[39.775,10.949],[39.738,11.056],[39.738,11.077]]}},{"type":"Feature","properties":{"rank":3},"geometry":{"type":"LineString","coordinates":[[39.73,9.843],[39.746,9.86]]}},{"type":"Feature","properties":{"rank":3},"geometry":{"type":"LineString","coordinates":[[38.129,10.223],[38.138,10.198],[38.142,10.165],[38.154,10.144],[38.15,10.132],[38.183,10.091],[38.187,10.074],[38.199,10.05],[38.228,10.05],[38.245,10.029],[38.249,10.013],[38.27,9.98],[38.319,9.93],[38.331,9.909],[38.36,9.876],[38.369,9.843],[38.381,9.839],[38.402,9.823],[38.439,9.777],[38.447,9.769],[38.496,9.769],[38.554,9.815],[38.567,9.819],[38.595,9.802],[38.641,9.806],[38.661,9.798],[38.682,9.786],[38.732,9.777]]}},{"type":"Feature","properties":{"rank":3},"geometry":{"type":"LineString","coordinates":[[39.561,9.687],[39.581,9.695],[39.618,9.691],[39.635,9.699],[39.655,9.728],[39.664,9.765],[39.676,9.79],[39.713,9.819],[39.73,9.843]]}},{"type":"Feature","properties":{"rank":4},"geometry":{"type":"LineString","coordinates":[[42.905,10.528],[42.885,10.503],[42.839,10.479],[42.827,10.466],[42.815,10.433],[42.811,10.421],[42.823,10.351],[42.839,10.322],[42.864,10.301],[42.893,10.301],[42.914,10.309],[42.955,10.309],[42.971,10.305],[42.984,10.285],[43.004,10.268],[43.021,10.239],[43.046,10.21],[43.075,10.198],[43.083,10.177],[43.079,10.161],[43.058,10.149],[43.009,10.136],[43.0,10.124],[43.029,10.087],[43.037,10.07],[43.058,10.066],[43.095,10.041],[43.108,10.013],[43.145,9.992],[43.157,9.975],[43.182,9.934],[43.211,9.909],[43.277,9.848],[43.306,9.815],[43.363,9.757],[43.388,9.732],[43.479,9.666]]}},{"type":"Feature","properties":{"rank":3},"geometry":{"type":"LineString","coordinates":[[39.519,9.658],[39.561,9.687]]}},{"type":"Feature","properties":{"rank":3},"geometry":{"type":"LineString","coordinates":[[45.009,10.429],[44.972,10.347],[44.955,10.314],[44.918,10.256],[44.902,10.235],[44.898,10.227],[44.869,10.19],[44.836,10.153],[44.819,10.124],[44.811,10.095],[44.786,10.029],[44.77,10.0],[44.745,9.992],[44.716,9.967],[44.658,9.901],[44.638,9.885],[44.596,9.864],[44.568,9.856],[44.535,9.856],[44.526,9.848],[44.497,9.81],[44.485,9.753],[44.473,9.736],[44.444,9.736],[44.423,9.728],[44.37,9.699],[44.349,9.691],[44.295,9.687],[44.275,9.674],[44.246,9.645],[44.221,9.633],[44.201,9.629],[44.172,9.617],[44.143,9.588],[44.135,9.579],[44.081,9.567],[44.069,9.555]]}},{"type":"Feature","properties":{"rank":4},"geometry":{"type":"LineString","coordinates":[[44.069,9.555],[44.081,9.546]]}},{"type":"Feature","properties":{"rank":4},"geometry":{"type":"LineString","coordinates":[[38.732,9.777],[38.74,9.773],[38.777,9.736],[38.798,9.728],[38.814,9.711],[38.818,9.67],[38.818,9.654],[38.835,9.621],[38.859,9.559],[38.864,9.526]]}},{"type":"Feature","properties":{"rank":4},"geometry":{"type":"LineString","coordinates":[[45.009,10.429],[45.038,10.417],[45.067,10.396],[45.083,10.359],[45.096,10.326],[45.124,10.285],[45.124,10.276],[45.141,10.256],[45.166,10.202],[45.17,10.161],[45.162,10.128],[45.157,10.099],[45.166,10.078],[45.162,10.05],[45.162,10.021],[45.17,9.996],[45.166,9.975],[45.17,9.967],[45.186,9.963],[45.19,9.934],[45.219,9.905],[45.236,9.885],[45.252,9.852],[45.277,9.823],[45.302,9.794],[45.322,9.777],[45.355,9.765],[45.425,9.711],[45.45,9.683],[45.479,9.633],[45.508,9.592],[45.529,9.559],[45.545,9.522]]}},{"type":"Feature","properties":{"rank":4},"geometry":{"type":"LineString","coordinates":[[44.081,9.546],[44.13,9.522]]}},{"type":"Feature","properties":{"rank":4},"geometry":{"type":"LineString","coordinates":[[41.338,9.518],[41.367,9.542],[41.384,9.551],[41.392,9.534],[41.404,9.526],[41.425,9.534],[41.433,9.53],[41.458,9.538],[41.483,9.538],[41.516,9.559],[41.54,9.563],[41.573,9.588],[41.615,9.612],[41.648,9.604],[41.668,9.604],[41.709,9.6],[41.734,9.608],[41.759,9.612],[41.804,9.608],[41.825,9.596],[41.862,9.584]]}},{"type":"Feature","properties":{"rank":4},"geometry":{"type":"LineString","coordinates":[[32.537,10.462],[32.533,10.454],[32.524,10.404],[32.52,10.363],[32.524,10.33],[32.52,10.322],[32.5,10.301],[32.471,10.281],[32.45,10.268],[32.413,10.243],[32.405,10.231],[32.396,10.202],[32.363,10.173],[32.33,10.149],[32.31,10.12],[32.297,10.111],[32.277,10.083],[32.264,10.054],[32.244,10.0],[32.24,9.988],[32.244,9.942],[32.236,9.918],[32.236,9.868],[32.227,9.848],[32.186,9.782],[32.165,9.773],[32.132,9.773],[32.104,9.769],[32.062,9.757],[32.017,9.749],[31.972,9.732],[31.943,9.728],[31.918,9.72],[31.897,9.703],[31.869,9.691],[31.84,9.662],[31.798,9.658],[31.77,9.645],[31.749,9.633],[31.699,9.608],[31.683,9.592],[31.666,9.542],[31.666,9.513]]}},{"type":"Feature","properties":{"rank":4},"geometry":{"type":"LineString","coordinates":[[43.479,9.666],[43.536,9.633],[43.574,9.604],[43.602,9.588],[43.656,9.579],[43.689,9.567],[43.763,9.534],[43.784,9.522],[43.825,9.501],[43.854,9.489]]}},{"type":"Feature","properties":{"rank":4},"geometry":{"type":"LineString","coordinates":[[45.434,9.468],[45.504,9.505],[45.545,9.522]]}},{"type":"Feature","properties":{"rank":4},"geometry":{"type":"LineString","coordinates":[[41.862,9.584],[41.87,9.551],[41.878,9.513],[41.899,9.501],[41.907,9.476],[41.911,9.452]]}},{"type":"Feature","properties":{"rank":4},"geometry":{"type":"LineString","coordinates":[[41.911,9.452],[41.932,9.443],[41.953,9.414],[41.973,9.41]]}},{"type":"Feature","properties":{"rank":4},"geometry":{"type":"LineString","coordinates":[[43.479,9.666],[43.417,9.65],[43.388,9.633],[43.355,9.621],[43.33,9.596],[43.31,9.596],[43.285,9.584],[43.207,9.509],[43.157,9.472],[43.103,9.435],[43.066,9.419],[43.029,9.406],[42.901,9.369],[42.848,9.357],[42.831,9.348]]}},{"type":"Feature","properties":{"rank":3},"geometry":{"type":"LineString","coordinates":[[44.13,9.522],[44.159,9.501],[44.172,9.48],[44.18,9.468],[44.209,9.452],[44.242,9.439],[44.267,9.431],[44.308,9.423],[44.357,9.423],[44.399,9.431],[44.464,9.431],[44.514,9.423],[44.547,9.41],[44.601,9.386],[44.654,9.361],[44.704,9.336],[44.749,9.32],[44.774,9.315]]}},{"type":"Feature","properties":{"rank":3},"geometry":{"type":"LineString","coordinates":[[44.774,9.315],[44.799,9.315],[44.86,9.324],[44.947,9.344],[44.98,9.357],[45.025,9.377],[45.058,9.406],[45.079,9.431],[45.091,9.435],[45.108,9.427],[45.129,9.398],[45.186,9.386],[45.244,9.386],[45.294,9.398],[45.359,9.427],[45.434,9.468]]}},{"type":"Feature","properties":{"rank":4},"geometry":{"type":"LineString","coordinates":[[41.973,9.41],[41.998,9.394],[42.027,9.365],[42.068,9.332],[42.093,9.315],[42.13,9.299]]}},{"type":"Feature","properties":{"rank":4},"geometry":{"type":"LineString","coordinates":[[40.753,9.233],[40.798,9.254],[40.823,9.291],[40.847,9.299],[40.864,9.32],[40.889,9.34],[40.909,9.369],[40.926,9.381],[40.979,9.431],[40.992,9.464],[41.012,9.485],[41.037,9.493],[41.099,9.505],[41.144,9.546],[41.186,9.546],[41.227,9.522],[41.243,9.497],[41.26,9.48],[41.297,9.501],[41.322,9.505],[41.338,9.518]]}},{"type":"Feature","properties":{"rank":4},"geometry":{"type":"LineString","coordinates":[[42.464,9.216],[42.468,9.221],[42.592,9.229],[42.613,9.237],[42.617,9.249],[42.621,9.278],[42.637,9.295],[42.646,9.315],[42.65,9.353],[42.67,9.361],[42.728,9.357],[42.778,9.357],[42.819,9.357],[42.831,9.348]]}},{"type":"Feature","properties":{"rank":4},"geometry":{"type":"LineString","coordinates":[[42.13,9.299],[42.147,9.282],[42.167,9.274],[42.204,9.254],[42.241,9.241],[42.283,9.216],[42.324,9.225],[42.353,9.212]]}},{"type":"Feature","properties":{"rank":4},"geometry":{"type":"LineString","coordinates":[[42.353,9.212],[42.39,9.188],[42.415,9.196],[42.431,9.192],[42.464,9.216]]}},{"type":"Feature","properties":{"rank":3},"geometry":{"type":"LineString","coordinates":[[45.545,9.522],[45.574,9.505],[45.603,9.468],[45.632,9.464],[45.648,9.447],[45.665,9.427],[45.681,9.406],[45.71,9.381],[45.76,9.32],[45.809,9.266],[45.838,9.237],[45.871,9.212],[45.929,9.167],[45.962,9.142]]}},{"type":"Feature","properties":{"rank":4},"geometry":{"type":"LineString","coordinates":[[36.537,9.085],[36.57,9.085],[36.599,9.068],[36.599,9.047],[36.616,9.035]]}},{"type":"Feature","properties":{"rank":4},"geometry":{"type":"LineString","coordinates":[[38.864,9.526],[38.872,9.46],[38.872,9.452],[38.847,9.423],[38.839,9.39],[38.826,9.386],[38.806,9.381],[38.777,9.365],[38.76,9.336],[38.752,9.303],[38.765,9.27],[38.756,9.249],[38.752,9.221],[38.76,9.192],[38.74,9.13],[38.719,9.122],[38.715,9.101],[38.736,9.085],[38.74,9.064],[38.736,9.023]]}},{"type":"Feature","properties":{"rank":4},"geometry":{"type":"LineString","coordinates":[[38.736,9.023],[38.744,9.019]]}},{"type":"Feature","properties":{"rank":3},"geometry":{"type":"LineString","coordinates":[[40.724,11.349],[40.728,11.324],[40.728,11.291],[40.715,11.25],[40.715,11.242],[40.736,11.225],[40.74,11.213],[40.744,11.18],[40.757,11.134],[40.757,11.114],[40.744,11.052],[40.744,11.031],[40.74,11.011],[40.711,10.945],[40.695,10.879],[40.682,10.879],[40.666,10.858],[40.649,10.817],[40.649,10.792],[40.654,10.763],[40.687,10.726],[40.703,10.693],[40.707,10.664],[40.711,10.619],[40.715,10.602],[40.736,10.573],[40.748,10.532],[40.748,10.462],[40.736,10.396],[40.736,10.375],[40.74,10.342],[40.724,10.33],[40.715,10.309],[40.711,10.227],[40.687,10.198],[40.666,10.186],[40.649,10.157],[40.645,10.12],[40.637,10.107],[40.604,10.041],[40.571,10.0],[40.538,9.951],[40.526,9.93],[40.517,9.901],[40.501,9.856],[40.509,9.806],[40.472,9.761],[40.451,9.736],[40.443,9.711],[40.443,9.683],[40.418,9.621],[40.402,9.592],[40.39,9.534],[40.369,9.48],[40.369,9.472],[40.377,9.443],[40.369,9.419],[40.348,9.398],[40.328,9.386],[40.307,9.365],[40.278,9.324],[40.216,9.262],[40.175,9.225],[40.146,9.204],[40.138,9.196],[40.138,9.179],[40.163,9.13],[40.2,9.047],[40.2,9.027],[40.187,9.01]]}},{"type":"Feature","properties":{"rank":3},"geometry":{"type":"LineString","coordinates":[[38.756,9.01],[38.76,9.019],[38.781,9.019],[38.839,9.027],[38.859,9.031],[38.913,9.08],[38.934,9.093],[38.979,9.101],[39.008,9.138],[39.02,9.155],[39.041,9.146],[39.078,9.163],[39.115,9.159],[39.132,9.167],[39.16,9.196],[39.169,9.216],[39.189,9.233],[39.21,9.245],[39.235,9.278],[39.292,9.328],[39.325,9.369],[39.363,9.423],[39.379,9.439],[39.429,9.497],[39.445,9.518],[39.486,9.551],[39.495,9.571],[39.503,9.621],[39.519,9.658]]}},{"type":"Feature","properties":{"rank":3},"geometry":{"type":"LineString","coordinates":[[38.756,9.01],[38.744,9.019]]}},{"type":"Feature","properties":{"rank":4},"geometry":{"type":"LineString","coordinates":[[40.187,9.01],[40.163,9.002]]}},{"type":"Feature","properties":{"rank":4},"geometry":{"type":"LineString","coordinates":[[40.753,9.233],[40.736,9.237],[40.715,9.233],[40.67,9.212],[40.649,9.208],[40.616,9.204],[40.588,9.196],[40.555,9.179],[40.489,9.138],[40.427,9.089],[40.39,9.06],[40.361,9.035],[40.348,9.035],[40.299,9.01],[40.274,9.002],[40.233,9.002],[40.196,9.002],[40.187,9.01]]}},{"type":"Feature","properties":{"rank":4},"geometry":{"type":"LineString","coordinates":[[45.962,9.142],[45.974,9.126],[46.011,9.072],[46.048,9.035],[46.069,9.014],[46.127,8.977],[46.176,8.965]]}},{"type":"Feature","properties":{"rank":3},"geometry":{"type":"LineString","coordinates":[[46.176,8.965],[46.205,8.953],[46.238,8.928],[46.254,8.924],[46.279,8.92],[46.333,8.924],[46.353,8.928],[46.407,8.948],[46.436,8.936],[46.469,8.932],[46.494,8.932],[46.518,8.936],[46.539,8.936],[46.605,8.924],[46.63,8.924]]}},{"type":"Feature","properties":{"rank":3},"geometry":{"type":"LineString","coordinates":[[40.163,9.002],[40.076,8.961],[40.051,8.948],[40.014,8.936],[39.952,8.932],[39.907,8.936],[39.882,8.932],[39.853,8.915]]}},{"type":"Feature","properties":{"rank":3},"geometry":{"type":"LineString","coordinates":[[46.63,8.924],[46.646,8.924],[46.667,8.915],[46.708,8.887],[46.762,8.862],[46.815,8.841],[46.848,8.825],[46.914,8.779],[46.964,8.746]]}},{"type":"Feature","properties":{"rank":3},"geometry":{"type":"LineString","coordinates":[[39.123,8.59],[39.111,8.61],[39.09,8.618],[39.041,8.647],[39.012,8.68],[38.979,8.734],[38.946,8.746],[38.876,8.804],[38.826,8.825],[38.806,8.829],[38.793,8.849],[38.789,8.891],[38.773,8.915],[38.769,8.936],[38.773,8.969],[38.769,8.986],[38.756,9.01]]}},{"type":"Feature","properties":{"rank":3},"geometry":{"type":"LineString","coordinates":[[39.853,8.915],[39.82,8.891],[39.8,8.878],[39.771,8.87],[39.742,8.845],[39.709,8.833],[39.688,8.812],[39.647,8.792],[39.569,8.734],[39.515,8.68],[39.482,8.664],[39.462,8.656],[39.408,8.627],[39.334,8.565],[39.313,8.544],[39.272,8.536]]}},{"type":"Feature","properties":{"rank":3},"geometry":{"type":"LineString","coordinates":[[39.272,8.536],[39.239,8.524],[39.218,8.528],[39.21,8.548],[39.222,8.573],[39.202,8.573],[39.185,8.561],[39.165,8.548],[39.148,8.561],[39.148,8.581],[39.123,8.59]]}},{"type":"Feature","properties":{"rank":3},"geometry":{"type":"LineString","coordinates":[[46.964,8.746],[47.005,8.722],[47.059,8.693],[47.092,8.689],[47.125,8.693],[47.145,8.676],[47.158,8.647],[47.182,8.618],[47.207,8.606],[47.232,8.602],[47.273,8.585],[47.286,8.565],[47.319,8.503],[47.335,8.482],[47.356,8.47]]}},{"type":"Feature","properties":{"rank":3},"geometry":{"type":"LineString","coordinates":[[47.356,8.47],[47.376,8.491],[47.418,8.507],[47.442,8.507],[47.504,8.552],[47.554,8.573],[47.574,8.573],[47.595,8.565],[47.624,8.569],[47.71,8.557],[47.756,8.548],[47.851,8.536],[47.904,8.536],[47.954,8.54],[47.995,8.544],[48.028,8.552],[48.061,8.569],[48.077,8.573],[48.102,8.565],[48.143,8.544],[48.172,8.519],[48.193,8.511],[48.209,8.511],[48.238,8.499],[48.271,8.495],[48.296,8.478],[48.333,8.47],[48.362,8.445],[48.383,8.445],[48.391,8.441],[48.399,8.42],[48.42,8.408],[48.461,8.404],[48.486,8.404]]}},{"type":"Feature","properties":{"rank":4},"geometry":{"type":"LineString","coordinates":[[38.649,8.924],[38.575,8.891],[38.521,8.849],[38.509,8.845],[38.406,8.837],[38.373,8.833],[38.364,8.829],[38.303,8.763],[38.245,8.693],[38.216,8.651],[38.191,8.623],[38.171,8.618],[38.146,8.631],[38.121,8.631],[38.105,8.627],[38.059,8.639],[38.03,8.627],[38.018,8.606],[37.997,8.577],[37.973,8.536],[37.964,8.515],[37.96,8.486],[37.936,8.449],[37.903,8.412],[37.878,8.387],[37.849,8.363],[37.816,8.346],[37.795,8.35],[37.779,8.334],[37.779,8.305],[37.775,8.276]]}},{"type":"Feature","properties":{"rank":4},"geometry":{"type":"LineString","coordinates":[[42.831,9.348],[42.905,9.311],[42.943,9.291],[43.009,9.258],[43.029,9.245],[43.058,9.225],[43.095,9.188],[43.145,9.155],[43.178,9.097],[43.202,9.068],[43.227,9.035],[43.244,9.006],[43.268,8.928],[43.277,8.907],[43.301,8.837],[43.314,8.808],[43.347,8.771],[43.392,8.734],[43.413,8.705],[43.421,8.651],[43.429,8.627],[43.45,8.61],[43.512,8.577],[43.528,8.561],[43.553,8.532],[43.557,8.511],[43.561,8.491],[43.553,8.404],[43.569,8.35],[43.565,8.268],[43.565,8.223]]}},{"type":"Feature","properties":{"rank":3},"geometry":{"type":"LineString","coordinates":[[38.723,8.016],[38.727,8.037],[38.732,8.049],[38.76,8.078],[38.802,8.128],[38.831,8.152],[38.851,8.181],[38.88,8.235],[38.934,8.288],[38.958,8.317],[38.975,8.35],[39.004,8.416],[39.024,8.445],[39.057,8.474],[39.078,8.519],[39.115,8.565],[39.123,8.59]]}},{"type":"Feature","properties":{"rank":3},"geometry":{"type":"LineString","coordinates":[[48.486,8.404],[48.469,8.383],[48.416,8.367],[48.395,8.354],[48.354,8.317],[48.321,8.297],[48.292,8.272],[48.275,8.255],[48.267,8.239],[48.271,8.206],[48.267,8.169],[48.251,8.157],[48.205,8.148],[48.172,8.132],[48.156,8.103],[48.11,8.053],[48.106,8.037],[48.106,8.0],[48.102,7.983]]}},{"type":"Feature","properties":{"rank":4},"geometry":{"type":"LineString","coordinates":[[43.565,8.223],[43.569,8.181],[43.574,8.161],[43.594,8.091],[43.611,8.07],[43.615,8.053],[43.611,8.033],[43.615,8.004],[43.635,7.963],[43.64,7.946]]}},{"type":"Feature","properties":{"rank":4},"geometry":{"type":"LineString","coordinates":[[37.775,8.276],[37.766,8.268],[37.738,8.251],[37.721,8.268],[37.7,8.268],[37.655,8.247],[37.634,8.239],[37.626,8.239],[37.606,8.255],[37.573,8.239],[37.568,8.21],[37.556,8.194],[37.568,8.173],[37.568,8.165],[37.535,8.152],[37.523,8.136],[37.49,8.119],[37.478,8.103],[37.457,8.086],[37.453,8.074],[37.457,8.053],[37.445,8.037],[37.432,8.008],[37.436,7.992],[37.445,7.971],[37.441,7.954],[37.436,7.926],[37.42,7.926],[37.403,7.913],[37.375,7.839],[37.366,7.831],[37.346,7.814],[37.321,7.785],[37.313,7.777],[37.272,7.773],[37.222,7.752],[37.193,7.748],[37.152,7.728],[37.094,7.707],[37.053,7.699],[37.024,7.711],[36.991,7.703],[36.975,7.699],[36.937,7.682],[36.925,7.686],[36.9,7.662],[36.88,7.657],[36.838,7.674]]}},{"type":"Feature","properties":{"rank":4},"geometry":{"type":"LineString","coordinates":[[36.224,7.286],[36.224,7.311],[36.212,7.356],[36.207,7.377],[36.232,7.389],[36.253,7.385],[36.278,7.385],[36.311,7.402],[36.356,7.41],[36.364,7.418],[36.377,7.439],[36.389,7.443],[36.405,7.464],[36.426,7.476],[36.492,7.497],[36.603,7.55],[36.645,7.558],[36.669,7.567],[36.69,7.583],[36.715,7.608],[36.739,7.608],[36.785,7.645],[36.81,7.645],[36.838,7.666],[36.838,7.674]]}},{"type":"Feature","properties":{"rank":3},"geometry":{"type":"LineString","coordinates":[[38.608,7.191],[38.641,7.22],[38.657,7.241],[38.661,7.249],[38.649,7.282],[38.649,7.303],[38.666,7.34],[38.666,7.365],[38.678,7.451],[38.682,7.484],[38.674,7.505],[38.67,7.534],[38.678,7.596],[38.682,7.657],[38.657,7.686],[38.645,7.707],[38.641,7.732],[38.645,7.752],[38.69,7.835],[38.699,7.855],[38.707,7.876],[38.715,7.909],[38.723,7.963],[38.723,8.016]]}},{"type":"Feature","properties":{"rank":3},"geometry":{"type":"LineString","coordinates":[[48.102,7.983],[48.094,7.963],[48.077,7.913],[48.049,7.864],[48.036,7.843],[48.007,7.794],[47.995,7.777],[47.974,7.761],[47.925,7.728],[47.884,7.695],[47.867,7.678],[47.847,7.649],[47.83,7.62],[47.826,7.579],[47.822,7.517],[47.826,7.455],[47.822,7.435],[47.801,7.406],[47.781,7.393],[47.719,7.385],[47.69,7.377],[47.661,7.356],[47.611,7.311],[47.574,7.278],[47.57,7.266],[47.562,7.216],[47.558,7.208],[47.537,7.196],[47.525,7.179],[47.525,7.15],[47.508,7.097],[47.492,7.076],[47.446,7.047],[47.43,7.043],[47.397,7.026],[47.343,6.973],[47.327,6.944]]}},{"type":"Feature","properties":{"rank":4},"geometry":{"type":"LineString","coordinates":[[47.327,6.944],[47.335,6.915],[47.36,6.878],[47.393,6.816],[47.409,6.795],[47.418,6.767]]}},{"type":"Feature","properties":{"rank":4},"geometry":{"type":"LineString","coordinates":[[43.64,7.946],[43.652,7.905],[43.652,7.888],[43.664,7.868],[43.66,7.851],[43.652,7.822],[43.652,7.806],[43.668,7.785],[43.689,7.769],[43.751,7.728],[43.755,7.715],[43.763,7.624],[43.767,7.583],[43.784,7.534],[43.805,7.501],[43.85,7.455],[43.908,7.422],[43.928,7.406],[43.974,7.348],[43.986,7.328],[44.011,7.315],[44.027,7.286],[44.036,7.278],[44.073,7.257],[44.089,7.237],[44.118,7.224],[44.159,7.224],[44.176,7.204],[44.176,7.183],[44.184,7.154],[44.172,7.088],[44.163,7.064],[44.18,7.051],[44.188,7.039],[44.192,6.989],[44.217,6.952],[44.221,6.936],[44.234,6.911],[44.238,6.886],[44.254,6.878],[44.258,6.866],[44.246,6.845],[44.246,6.833],[44.262,6.787],[44.279,6.729]]}},{"type":"Feature","properties":{"rank":4},"geometry":{"type":"LineString","coordinates":[[44.279,6.729],[44.279,6.696],[44.308,6.676],[44.316,6.663],[44.337,6.622]]}},{"type":"Feature","properties":{"rank":4},"geometry":{"type":"LineString","coordinates":[[44.337,6.622],[44.357,6.61],[44.378,6.606],[44.444,6.61],[44.464,6.606]]}},{"type":"Feature","properties":{"rank":3},"geometry":{"type":"LineString","coordinates":[[38.422,6.589],[38.43,6.606],[38.41,6.626],[38.402,6.643],[38.397,6.668],[38.389,6.676],[38.373,6.68],[38.364,6.688],[38.36,6.705],[38.369,6.746],[38.381,6.791],[38.389,6.853],[38.418,6.878],[38.476,6.944],[38.496,6.998],[38.501,7.022],[38.484,7.039],[38.492,7.055],[38.496,7.076],[38.492,7.097],[38.496,7.117],[38.521,7.142],[38.608,7.191]]}},{"type":"Feature","properties":{"rank":4},"geometry":{"type":"LineString","coordinates":[[44.464,6.606],[44.473,6.606],[44.543,6.597],[44.58,6.585],[44.601,6.569],[44.634,6.527],[44.646,6.498],[44.667,6.482],[44.683,6.453],[44.695,6.433],[44.704,6.412],[44.704,6.371],[44.716,6.346],[44.737,6.284],[44.749,6.23],[44.753,6.206],[44.753,6.144],[44.761,6.086]]}},{"type":"Feature","properties":{"rank":4},"geometry":{"type":"LineString","coordinates":[[44.761,6.086],[44.766,6.078],[44.77,6.016],[44.774,6.008],[44.803,5.987],[44.803,5.979],[44.786,5.95],[44.786,5.925],[44.774,5.896],[44.766,5.867],[44.774,5.847],[44.799,5.818]]}},{"type":"Feature","properties":{"rank":4},"geometry":{"type":"LineString","coordinates":[[38.422,6.589],[38.435,6.573],[38.443,6.569],[38.472,6.577],[38.492,6.564],[38.509,6.556],[38.509,6.536],[38.496,6.523],[38.492,6.503],[38.521,6.486],[38.534,6.47],[38.538,6.449],[38.55,6.428],[38.575,6.404],[38.587,6.383],[38.633,6.342],[38.653,6.338],[38.666,6.321],[38.67,6.284],[38.661,6.276],[38.69,6.263],[38.699,6.243],[38.711,6.189],[38.727,6.144],[38.752,6.119],[38.777,6.07],[38.785,6.061],[38.818,6.045],[38.851,5.999],[38.884,5.991],[38.913,5.929],[38.938,5.896],[38.958,5.884],[38.991,5.872],[39.049,5.863],[39.099,5.863],[39.132,5.867],[39.177,5.892],[39.198,5.892],[39.214,5.872],[39.222,5.872],[39.235,5.859],[39.247,5.83],[39.264,5.814],[39.268,5.793],[39.292,5.781],[39.309,5.764],[39.325,5.727],[39.342,5.711],[39.346,5.669],[39.35,5.649],[39.35,5.595],[39.363,5.579],[39.396,5.542],[39.424,5.517],[39.462,5.492],[39.474,5.472]]}},{"type":"Feature","properties":{"rank":3},"geometry":{"type":"LineString","coordinates":[[47.418,6.767],[47.413,6.746],[47.372,6.684],[47.343,6.663],[47.323,6.647],[47.314,6.626],[47.31,6.602],[47.286,6.56],[47.265,6.544],[47.248,6.531],[47.145,6.49],[47.125,6.486],[47.108,6.498],[47.092,6.503],[47.067,6.49],[46.997,6.461],[46.976,6.465],[46.956,6.474],[46.931,6.478],[46.873,6.453],[46.836,6.437],[46.791,6.42],[46.782,6.42],[46.733,6.433],[46.721,6.433],[46.704,6.42],[46.696,6.412],[46.7,6.371],[46.7,6.35],[46.692,6.325],[46.675,6.305],[46.646,6.268],[46.65,6.235],[46.638,6.202],[46.638,6.173],[46.63,6.111],[46.63,6.041],[46.63,6.024],[46.613,5.971],[46.609,5.938],[46.622,5.896],[46.634,5.88],[46.63,5.867],[46.597,5.851],[46.58,5.834],[46.518,5.752],[46.51,5.744],[46.473,5.719],[46.452,5.702],[46.436,5.674],[46.419,5.624],[46.411,5.587],[46.399,5.554],[46.378,5.517],[46.366,5.48],[46.362,5.418],[46.358,5.389],[46.341,5.373]]}},{"type":"Feature","properties":{"rank":4},"geometry":{"type":"LineString","coordinates":[[39.474,5.472],[39.49,5.434],[39.507,5.414],[39.532,5.368],[39.548,5.348],[39.565,5.331],[39.614,5.311],[39.643,5.302],[39.688,5.269]]}},{"type":"Feature","properties":{"rank":4},"geometry":{"type":"LineString","coordinates":[[44.799,5.818],[44.819,5.801],[44.832,5.777],[44.844,5.744],[44.889,5.649],[44.91,5.612],[44.947,5.583],[44.959,5.566],[44.976,5.55],[44.997,5.488],[44.984,5.467],[44.984,5.455],[44.997,5.451],[45.005,5.43],[45.005,5.41],[44.988,5.393],[45.001,5.373],[44.992,5.344],[45.001,5.323],[45.021,5.311],[45.054,5.269],[45.071,5.22],[45.108,5.199],[45.129,5.199],[45.137,5.191],[45.145,5.175],[45.133,5.154],[45.129,5.137],[45.137,5.104]]}},{"type":"Feature","properties":{"rank":3},"geometry":{"type":"LineString","coordinates":[[46.341,5.373],[46.3,5.36],[46.259,5.352],[46.238,5.352],[46.193,5.356],[46.114,5.348],[46.052,5.344],[46.032,5.344],[46.011,5.327],[45.991,5.323],[45.97,5.331],[45.937,5.323],[45.9,5.298],[45.879,5.294],[45.826,5.278],[45.78,5.261],[45.747,5.245],[45.731,5.236],[45.702,5.241],[45.681,5.232],[45.64,5.216],[45.611,5.199],[45.59,5.191],[45.562,5.199],[45.52,5.195],[45.504,5.187],[45.479,5.162],[45.467,5.133],[45.438,5.096],[45.401,5.059],[45.347,5.022],[45.302,4.977],[45.232,4.915]]}},{"type":"Feature","properties":{"rank":4},"geometry":{"type":"LineString","coordinates":[[45.141,5.096],[45.141,5.088],[45.17,5.047],[45.174,5.03],[45.174,4.989],[45.182,4.972],[45.199,4.952],[45.232,4.915]]}},{"type":"Feature","properties":{"rank":3},"geometry":{"type":"LineString","coordinates":[[38.175,4.906],[38.204,4.931],[38.208,4.977],[38.224,5.026],[38.232,5.047],[38.253,5.059],[38.265,5.076],[38.278,5.109],[38.315,5.142],[38.319,5.154],[38.311,5.195],[38.303,5.22],[38.298,5.265],[38.286,5.319],[38.303,5.36],[38.286,5.377],[38.278,5.397],[38.265,5.434],[38.261,5.525],[38.245,5.554],[38.249,5.562],[38.253,5.587],[38.216,5.711],[38.212,5.74],[38.212,5.818],[38.187,5.867],[38.171,5.905],[38.158,5.958],[38.162,5.999],[38.175,6.037],[38.212,6.078],[38.212,6.086],[38.208,6.115],[38.208,6.148],[38.224,6.189],[38.237,6.239],[38.237,6.247],[38.22,6.276],[38.216,6.296],[38.224,6.305],[38.253,6.313],[38.265,6.329],[38.298,6.35],[38.311,6.379],[38.319,6.433],[38.331,6.449],[38.352,6.465],[38.393,6.482],[38.397,6.494],[38.389,6.523],[38.389,6.548],[38.402,6.573],[38.422,6.589]]}},{"type":"Feature","properties":{"rank":3},"geometry":{"type":"LineString","coordinates":[[38.183,4.849],[38.175,4.894],[38.175,4.906]]}},{"type":"Feature","properties":{"rank":3},"geometry":{"type":"LineString","coordinates":[[38.191,4.803],[38.183,4.849]]}},{"type":"Feature","properties":{"rank":3},"geometry":{"type":"LineString","coordinates":[[45.232,4.915],[45.232,4.89],[45.24,4.828],[45.248,4.799],[45.256,4.758],[45.256,4.741]]}},{"type":"Feature","properties":{"rank":4},"geometry":{"type":"LineString","coordinates":[[45.199,4.737],[45.207,4.741],[45.256,4.741]]}},{"type":"Feature","properties":{"rank":4},"geometry":{"type":"LineString","coordinates":[[33.654,4.655],[33.638,4.692],[33.621,4.708],[33.609,4.729],[33.605,4.758],[33.593,4.774]]}},{"type":"Feature","properties":{"rank":4},"geometry":{"type":"LineString","coordinates":[[33.58,4.779],[33.56,4.766],[33.51,4.754],[33.489,4.741],[33.461,4.704],[33.452,4.671],[33.444,4.655],[33.423,4.626],[33.37,4.581],[33.324,4.552],[33.304,4.527]]}},{"type":"Feature","properties":{"rank":3},"geometry":{"type":"LineString","coordinates":[[45.256,4.741],[45.256,4.733],[45.269,4.713],[45.273,4.684],[45.277,4.676],[45.314,4.626],[45.335,4.593],[45.347,4.564],[45.351,4.531],[45.347,4.49],[45.359,4.449]]}},{"type":"Feature","properties":{"rank":4},"geometry":{"type":"LineString","coordinates":[[33.048,4.424],[33.019,4.445],[32.986,4.482],[32.97,4.498],[32.949,4.502],[32.912,4.494],[32.883,4.469],[32.862,4.465]]}},{"type":"Feature","properties":{"rank":4},"geometry":{"type":"LineString","coordinates":[[32.52,4.416],[32.479,4.428],[32.442,4.44],[32.401,4.465],[32.347,4.486],[32.302,4.498],[32.273,4.527],[32.264,4.531],[32.219,4.544],[32.182,4.564],[32.145,4.597],[32.095,4.634],[32.05,4.634],[32.029,4.663],[31.992,4.68],[31.922,4.708],[31.902,4.713],[31.885,4.708],[31.877,4.7],[31.864,4.68],[31.852,4.659],[31.823,4.643],[31.811,4.638],[31.782,4.647],[31.765,4.667],[31.683,4.688]]}},{"type":"Feature","properties":{"rank":4},"geometry":{"type":"LineString","coordinates":[[32.862,4.465],[32.842,4.465],[32.813,4.478],[32.788,4.506],[32.78,4.506],[32.743,4.486],[32.693,4.469],[32.652,4.453],[32.632,4.428],[32.582,4.412],[32.561,4.407],[32.52,4.416]]}},{"type":"Feature","properties":{"rank":4},"geometry":{"type":"LineString","coordinates":[[33.304,4.527],[33.3,4.506],[33.312,4.469],[33.345,4.374],[33.341,4.37]]}},{"type":"Feature","properties":{"rank":4},"geometry":{"type":"LineString","coordinates":[[33.341,4.37],[33.308,4.346],[33.238,4.329],[33.147,4.296],[33.126,4.304],[33.102,4.329],[33.089,4.35],[33.06,4.403],[33.048,4.424]]}},{"type":"Feature","properties":{"rank":4},"geometry":{"type":"LineString","coordinates":[[34.356,4.185],[34.339,4.226],[34.31,4.251],[34.31,4.271],[34.31,4.304],[34.31,4.374],[34.302,4.407],[34.294,4.449],[34.29,4.457],[34.24,4.49],[34.207,4.506],[34.166,4.535],[34.116,4.568],[34.071,4.601],[34.05,4.61],[33.984,4.589],[33.968,4.593],[33.91,4.63],[33.894,4.638],[33.861,4.634],[33.832,4.626],[33.774,4.618],[33.745,4.622],[33.712,4.643],[33.654,4.655]]}},{"type":"Feature","properties":{"rank":3},"geometry":{"type":"LineString","coordinates":[[38.286,4.148],[38.29,4.181],[38.278,4.218],[38.278,4.247],[38.282,4.288],[38.282,4.362],[38.274,4.395],[38.278,4.461],[38.27,4.502],[38.257,4.556],[38.245,4.585],[38.241,4.618],[38.241,4.655],[38.228,4.684],[38.199,4.708],[38.191,4.729],[38.195,4.77],[38.191,4.803]]}},{"type":"Feature","properties":{"rank":4},"geometry":{"type":"LineString","coordinates":[[39.688,5.269],[39.734,5.249],[39.787,5.228],[39.837,5.22],[39.853,5.212],[39.903,5.212],[39.985,5.199],[40.047,5.195],[40.109,5.191],[40.142,5.183],[40.179,5.183],[40.245,5.191],[40.286,5.187],[40.332,5.154],[40.344,5.154],[40.394,5.154],[40.451,5.142],[40.546,5.121],[40.641,5.109],[40.658,5.104],[40.678,5.109],[40.724,5.071],[40.74,5.051],[40.777,5.034],[40.798,5.018],[40.819,4.989],[40.847,4.964],[40.856,4.927],[40.88,4.898],[40.909,4.869],[40.934,4.853],[40.963,4.82],[40.992,4.799],[41.008,4.787],[41.095,4.762],[41.148,4.721],[41.161,4.692],[41.177,4.663],[41.194,4.655],[41.214,4.659],[41.239,4.651],[41.268,4.655],[41.276,4.647],[41.285,4.626],[41.301,4.618],[41.309,4.61],[41.313,4.589],[41.359,4.572],[41.392,4.581],[41.421,4.56],[41.47,4.548],[41.487,4.544],[41.52,4.527],[41.532,4.511],[41.553,4.511],[41.582,4.506],[41.602,4.511],[41.631,4.506],[41.66,4.519],[41.709,4.511],[41.73,4.519],[41.746,4.506],[41.755,4.465],[41.759,4.457],[41.788,4.44],[41.808,4.412],[41.808,4.379],[41.883,4.317],[41.891,4.296],[41.887,4.259],[41.87,4.238],[41.866,4.205],[41.85,4.189],[41.85,4.172],[41.858,4.164],[41.92,4.156],[41.928,4.135],[41.94,4.135],[41.977,4.143],[41.998,4.152],[42.048,4.181],[42.06,4.181],[42.072,4.172]]}},{"type":"Feature","properties":{"rank":3},"geometry":{"type":"LineString","coordinates":[[38.336,4.04],[38.323,4.057],[38.298,4.086],[38.286,4.115],[38.286,4.148]]}},{"type":"Feature","properties":{"rank":4},"geometry":{"type":"LineString","coordinates":[[42.081,4.156],[42.081,4.148],[42.06,4.127],[42.027,4.106],[41.998,4.086],[41.969,4.044],[41.936,3.978],[41.928,3.966]]}},{"type":"Feature","properties":{"rank":4},"geometry":{"type":"LineString","coordinates":[[41.928,3.966],[41.911,3.95],[41.878,3.937],[41.87,3.937]]}},{"type":"Feature","properties":{"rank":3},"geometry":{"type":"LineString","coordinates":[[45.359,4.449],[45.372,4.428],[45.409,4.395],[45.442,4.346],[45.512,4.304],[45.529,4.288],[45.562,4.238],[45.574,4.209],[45.578,4.176],[45.578,4.156],[45.562,4.086],[45.574,4.044],[45.578,4.007],[45.586,3.974],[45.595,3.933]]}},{"type":"Feature","properties":{"rank":4},"geometry":{"type":"LineString","coordinates":[[41.87,3.937],[41.845,3.929],[41.817,3.933],[41.759,3.958],[41.718,3.962],[41.701,3.958],[41.668,3.945],[41.639,3.95],[41.61,3.95],[41.59,3.937],[41.569,3.933],[41.561,3.937],[41.532,3.925],[41.495,3.933],[41.45,3.925],[41.421,3.921],[41.351,3.925],[41.297,3.925],[41.247,3.925],[41.219,3.912]]}},{"type":"Feature","properties":{"rank":4},"geometry":{"type":"LineString","coordinates":[[31.959,3.859],[31.939,3.871],[31.922,3.888],[31.902,3.941],[31.906,3.962],[31.93,3.991],[31.939,4.007],[31.947,4.065],[31.955,4.086],[31.972,4.106],[31.98,4.127],[31.98,4.16],[31.988,4.197],[32.009,4.247],[32.013,4.288],[32.009,4.308],[31.992,4.333],[31.967,4.358],[31.943,4.366],[31.922,4.379],[31.873,4.391],[31.856,4.412],[31.852,4.428],[31.86,4.461],[31.852,4.478],[31.856,4.498],[31.844,4.519],[31.778,4.581],[31.745,4.618],[31.732,4.638],[31.716,4.651],[31.699,4.671],[31.683,4.688]]}},{"type":"Feature","properties":{"rank":3},"geometry":{"type":"LineString","coordinates":[[45.595,3.933],[45.595,3.925],[45.586,3.875],[45.574,3.851]]}},{"type":"Feature","properties":{"rank":4},"geometry":{"type":"LineString","coordinates":[[41.219,3.912],[41.206,3.884],[41.186,3.863],[41.177,3.842]]}},{"type":"Feature","properties":{"rank":4},"geometry":{"type":"LineString","coordinates":[[32.054,3.591],[32.046,3.632],[32.021,3.661],[31.996,3.69],[31.988,3.719],[31.984,3.776],[31.98,3.809],[31.967,3.838],[31.959,3.859]]}},{"type":"Feature","properties":{"rank":3},"geometry":{"type":"LineString","coordinates":[[39.045,3.574],[39.037,3.591],[39.02,3.611],[38.967,3.653],[38.905,3.682],[38.864,3.706],[38.847,3.715],[38.826,3.731],[38.76,3.818],[38.732,3.842],[38.703,3.863],[38.674,3.875],[38.645,3.879],[38.595,3.892],[38.575,3.896],[38.554,3.892],[38.496,3.892],[38.48,3.9],[38.451,3.921],[38.435,3.941],[38.406,3.962],[38.381,3.991],[38.336,4.04]]}},{"type":"Feature","properties":{"rank":3},"geometry":{"type":"LineString","coordinates":[[39.057,3.517],[39.057,3.525],[39.045,3.574]]}},{"type":"Feature","properties":{"rank":4},"geometry":{"type":"LineString","coordinates":[[41.177,3.842],[41.157,3.781],[41.14,3.743],[41.12,3.71],[41.095,3.677],[41.021,3.624],[41.0,3.591],[41.0,3.541],[40.971,3.492]]}},{"type":"Feature","properties":{"rank":3},"geometry":{"type":"LineString","coordinates":[[39.094,3.471],[39.082,3.492],[39.057,3.517]]}},{"type":"Feature","properties":{"rank":3},"geometry":{"type":"LineString","coordinates":[[39.099,3.455],[39.094,3.471]]}},{"type":"Feature","properties":{"rank":4},"geometry":{"type":"LineString","coordinates":[[35.391,3.397],[35.341,3.446],[35.317,3.479],[35.3,3.5],[35.267,3.521],[35.222,3.537],[35.189,3.55],[35.127,3.587],[35.048,3.64],[35.032,3.661],[34.999,3.686],[34.978,3.698],[34.962,3.698],[34.9,3.69],[34.85,3.706],[34.822,3.686],[34.801,3.682],[34.776,3.694],[34.747,3.735],[34.723,3.752],[34.69,3.76],[34.657,3.756],[34.636,3.768],[34.607,3.764],[34.599,3.768],[34.57,3.797],[34.578,3.818],[34.595,3.842],[34.595,3.855],[34.57,3.896],[34.562,3.95],[34.541,4.032],[34.525,4.053],[34.496,4.077],[34.455,4.131],[34.43,4.152],[34.384,4.168],[34.356,4.185]]}},{"type":"Feature","properties":{"rank":3},"geometry":{"type":"LineString","coordinates":[[45.574,3.851],[45.557,3.813],[45.557,3.752],[45.553,3.715],[45.57,3.665],[45.57,3.644],[45.562,3.607],[45.549,3.525],[45.52,3.418],[45.516,3.385]]}},{"type":"Feature","properties":{"rank":3},"geometry":{"type":"LineString","coordinates":[[38.645,3.504],[38.752,3.496],[38.785,3.488],[38.868,3.471],[38.946,3.455],[38.975,3.442],[39.0,3.422],[39.037,3.368],[39.053,3.347],[39.074,3.335],[39.086,3.352],[39.086,3.393],[39.094,3.434],[39.099,3.455]]}},{"type":"Feature","properties":{"rank":4},"geometry":{"type":"LineString","coordinates":[[40.971,3.492],[40.959,3.475],[40.967,3.446],[40.959,3.422],[40.93,3.405],[40.917,3.38],[40.913,3.36],[40.897,3.331],[40.88,3.298]]}},{"type":"Feature","properties":{"rank":4},"geometry":{"type":"LineString","coordinates":[[32.116,3.269],[32.104,3.319],[32.083,3.347],[32.075,3.368],[32.066,3.409],[32.066,3.43],[32.079,3.479],[32.079,3.521],[32.071,3.566],[32.054,3.591]]}},{"type":"Feature","properties":{"rank":4},"geometry":{"type":"LineString","coordinates":[[32.12,3.248],[32.116,3.269]]}},{"type":"Feature","properties":{"rank":4},"geometry":{"type":"LineString","coordinates":[[35.597,3.125],[35.572,3.149],[35.51,3.207],[35.502,3.211],[35.469,3.215],[35.465,3.224],[35.477,3.257],[35.486,3.277],[35.481,3.31],[35.465,3.352],[35.457,3.36],[35.416,3.38],[35.391,3.397]]}},{"type":"Feature","properties":{"rank":3},"geometry":{"type":"LineString","coordinates":[[45.516,3.385],[45.5,3.314],[45.483,3.248],[45.475,3.215],[45.471,3.125],[45.467,3.1],[45.463,3.026],[45.463,3.005],[45.52,2.964]]}},{"type":"Feature","properties":{"rank":4},"geometry":{"type":"LineString","coordinates":[[40.88,3.298],[40.876,3.281],[40.872,3.248],[40.868,3.182],[40.876,3.116],[40.889,3.079],[40.905,3.063],[40.905,3.022],[40.909,3.001],[40.934,2.972],[40.938,2.947],[40.938,2.918],[40.955,2.881],[40.955,2.861],[40.942,2.807]]}},{"type":"Feature","properties":{"rank":4},"geometry":{"type":"LineString","coordinates":[[32.289,2.787],[32.26,2.782],[32.223,2.782],[32.203,2.795],[32.186,2.815],[32.174,2.84],[32.165,2.848],[32.153,2.881],[32.145,2.914],[32.137,2.943],[32.141,2.984],[32.161,3.034],[32.165,3.05],[32.157,3.079],[32.157,3.121],[32.157,3.158],[32.157,3.178],[32.149,3.207],[32.124,3.24],[32.12,3.248]]}},{"type":"Feature","properties":{"rank":4},"geometry":{"type":"LineString","coordinates":[[35.597,3.125],[35.601,3.112],[35.63,3.046],[35.638,3.005],[35.651,2.96],[35.675,2.877],[35.679,2.787],[35.675,2.754],[35.663,2.712],[35.655,2.659],[35.642,2.626],[35.638,2.593],[35.646,2.547],[35.655,2.49],[35.655,2.428],[35.659,2.378]]}},{"type":"Feature","properties":{"rank":3},"geometry":{"type":"LineString","coordinates":[[38.01,2.349],[38.026,2.378],[38.03,2.411],[38.051,2.477],[38.068,2.523],[38.063,2.551],[38.059,2.572],[38.072,2.613],[38.088,2.692],[38.092,2.712],[38.096,2.754],[38.092,2.774],[38.129,2.89],[38.142,2.906],[38.162,2.918],[38.183,2.939],[38.204,2.98],[38.224,3.017],[38.282,3.137],[38.311,3.187],[38.336,3.232],[38.377,3.29],[38.393,3.302],[38.463,3.331],[38.48,3.347],[38.476,3.368],[38.484,3.393],[38.513,3.418],[38.534,3.479],[38.558,3.504],[38.608,3.508],[38.645,3.504]]}}]}