{"type":"FeatureCollection","features":[{"type":"Feature","properties":{"name":"Awasa","pop":133097,"capital":"Admin-1 capital","rank":9},"geometry":{"type":"Point","coordinates":[38.477,7.06]}},{"type":"Feature","properties":{"name":"Gore","pop":9352,"capital":"Admin-1 capital","rank":9},"geometry":{"type":"Point","coordinates":[35.537,8.149]}},{"type":"Feature","properties":{"name":"Debre Birhan","pop":65231,"capital":"Populated place","rank":7},"geometry":{"type":"Point","coordinates":[39.53,9.6804]}},{"type":"Feature","properties":{"name":"Bati","pop":19260,"capital":"Populated place","rank":7},"geometry":{"type":"Point","coordinates":[40.0166,11.1837]}},{"type":"Feature","properties":{"name":"Adigrat","pop":104021,"capital":"Populated place","rank":7},"geometry":{"type":"Point","coordinates":[39.47,14.2804]}},{"type":"Feature","properties":{"name":"Aksum","pop":47487,"capital":"Populated place","rank":7},"geometry":{"type":"Point","coordinates":[38.72,14.1304]}},{"type":"Feature","properties":{"name":"Yirga Alem","pop":36292,"capital":"Populated place","rank":7},"geometry":{"type":"Point","coordinates":[38.41,6.7504]}},{"type":"Feature","properties":{"name":"Hosaina","pop":89300,"capital":"Populated place","rank":7},"geometry":{"type":"Point","coordinates":[37.85,7.5504]}},{"type":"Feature","properties":{"name":"Dila","pop":47021,"capital":"Populated place","rank":7},"geometry":{"type":"Point","coordinates":[38.31,6.4104]}},{"type":"Feature","properties":{"name":"Giyon","pop":114534,"capital":"Populated place","rank":7},"geometry":{"type":"Point","coordinates":[37.97,8.5304]}},{"type":"Feature","properties":{"name":"Hagere Hiywet","pop":43920,"capital":"Populated place","rank":7},"geometry":{"type":"Point","coordinates":[37.85,8.9804]}},{"type":"Feature","properties":{"name":"Nekemte","pop":73018,"capital":"Admin-1 capital","rank":7},"geometry":{"type":"Point","coordinates":[36.53,9.0905]}},{"type":"Feature","properties":{"name":"Asela","pop":82240,"capital":"Admin-1 capital","rank":7},"geometry":{"type":"Point","coordinates":[39.1399,7.9504]}},{"type":"Feature","properties":{"name":"Shashemene","pop":114350,"capital":"Populated place","rank":7},"geometry":{"type":"Point","coordinates":[38.59,7.2004]}},{"type":"Feature","properties":{"name":"Dembi Dolo","pop":27780,"capital":"Populated place","rank":7},"geometry":{"type":"Point","coordinates":[34.8,8.5337]}},{"type":"Feature","properties":{"name":"Gimbi","pop":31809,"capital":"Populated place","rank":7},"geometry":{"type":"Point","coordinates":[35.8333,9.167]}},{"type":"Feature","properties":{"name":"Asosa","pop":30512,"capital":"Populated place","rank":7},"geometry":{"type":"Point","coordinates":[34.5333,10.067]}},{"type":"Feature","properties":{"name":"Jijiga","pop":56821,"capital":"Admin-1 capital","rank":7},"geometry":{"type":"Point","coordinates":[42.79,9.3504]}},{"type":"Feature","properties":{"name":"Debre Markos","pop":70758,"capital":"Admin-1 capital","rank":6},"geometry":{"type":"Point","coordinates":[37.72,10.34]}},{"type":"Feature","properties":{"name":"Dese","pop":183802,"capital":"Admin-1 capital","rank":6},"geometry":{"type":"Point","coordinates":[39.63,11.13]}},{"type":"Feature","properties":{"name":"Sodo","pop":65737,"capital":"Populated place","rank":6},"geometry":{"type":"Point","coordinates":[37.75,6.9]}},{"type":"Feature","properties":{"name":"Arba Minch","pop":69622,"capital":"Admin-1 capital","rank":6},"geometry":{"type":"Point","coordinates":[37.55,6.04]}},{"type":"Feature","properties":{"name":"Harar","pop":174994,"capital":"Admin-1 capital","rank":6},"geometry":{"type":"Point","coordinates":[42.15,9.32]}},{"type":"Feature","properties":{"name":"Goba","pop":34369,"capital":"Admin-1 capital","rank":6},"geometry":{"type":"Point","coordinates":[39.97,7.01]}},{"type":"Feature","properties":{"name":"Jima","pop":128306,"capital":"Admin-1 capital","rank":6},"geometry":{"type":"Point","coordinates":[36.83,7.68]}},{"type":"Feature","properties":{"name":"Nazret","pop":476892,"capital":"Populated place","rank":6},"geometry":{"type":"Point","coordinates":[39.27,8.55]}},{"type":"Feature","properties":{"name":"Negele Boran","pop":11772,"capital":"Populated place","rank":6},"geometry":{"type":"Point","coordinates":[39.5833,5.3166]}},{"type":"Feature","properties":{"name":"Gode","pop":75000,"capital":"Populated place","rank":6},"geometry":{"type":"Point","coordinates":[43.45,5.95]}},{"type":"Feature","properties":{"name":"Dolo Bay","pop":11810,"capital":"Populated place","rank":6},"geometry":{"type":"Point","coordinates":[42.0833,4.1833]}},{"type":"Feature","properties":{"name":"Bahir Dar","pop":206748,"capital":"Populated place","rank":4},"geometry":{"type":"Point","coordinates":[37.3833,11.6001]}},{"type":"Feature","properties":{"name":"Mekele","pop":95856,"capital":"Admin-1 capital","rank":4},"geometry":{"type":"Point","coordinates":[39.47,13.5]}},{"type":"Feature","properties":{"name":"Dire Dawa","pop":252279,"capital":"Populated place","rank":4},"geometry":{"type":"Point","coordinates":[41.86,9.59]}},{"type":"Feature","properties":{"name":"Gondar","pop":156230,"capital":"Admin-1 capital","rank":3},"geometry":{"type":"Point","coordinates":[37.46,12.61]}},{"type":"Feature","properties":{"name":"Addis Ababa","pop":3100000,"capital":"Admin-0 capital","rank":1},"geometry":{"type":"Point","coordinates":[38.6981,9.0353]}},{"type":"Feature","properties":{"name":"Lalibela","pop":null,"capital":"Populated place","rank":9},"geometry":{"type":"Point","coordinates":[39.047,12.031]}},{"type":"Feature","properties":{"name":"Woldia","pop":null,"capital":"Populated place","rank":9},"geometry":{"type":"Point","coordinates":[39.6,11.831]}},{"type":"Feature","properties":{"name":"Kombolcha","pop":null,"capital":"Populated place","rank":9},"geometry":{"type":"Point","coordinates":[39.742,11.083]}},{"type":"Feature","properties":{"name":"Debre Tabor","pop":null,"capital":"Populated place","rank":9},"geometry":{"type":"Point","coordinates":[38.017,11.85]}},{"type":"Feature","properties":{"name":"Shire","pop":null,"capital":"Populated place","rank":9},"geometry":{"type":"Point","coordinates":[38.283,14.106]}},{"type":"Feature","properties":{"name":"Humera","pop":null,"capital":"Populated place","rank":9},"geometry":{"type":"Point","coordinates":[36.617,14.294]}},{"type":"Feature","properties":{"name":"Metema","pop":null,"capital":"Populated place","rank":9},"geometry":{"type":"Point","coordinates":[36.155,12.953]}},{"type":"Feature","properties":{"name":"Alamata","pop":null,"capital":"Populated place","rank":9},"geometry":{"type":"Point","coordinates":[39.55,12.417]}},{"type":"Feature","properties":{"name":"Kobo","pop":null,"capital":"Populated place","rank":9},"geometry":{"type":"Point","coordinates":[39.633,12.15]}},{"type":"Feature","properties":{"name":"Sekota","pop":null,"capital":"Populated place","rank":9},"geometry":{"type":"Point","coordinates":[39.033,12.633]}},{"type":"Feature","properties":{"name":"Adwa","pop":null,"capital":"Populated place","rank":9},"geometry":{"type":"Point","coordinates":[38.896,14.164]}},{"type":"Feature","properties":{"name":"Semera","pop":null,"capital":"Populated place","rank":9},"geometry":{"type":"Point","coordinates":[41.006,11.792]}},{"type":"Feature","properties":{"name":"Ambo","pop":null,"capital":"Populated place","rank":9},"geometry":{"type":"Point","coordinates":[37.85,8.983]}},{"type":"Feature","properties":{"name":"Bishoftu","pop":null,"capital":"Populated place","rank":9},"geometry":{"type":"Point","coordinates":[38.983,8.75]}},{"type":"Feature","properties":{"name":"Finote Selam","pop":null,"capital":"Populated place","rank":9},"geometry":{"type":"Point","coordinates":[37.267,10.7]}}]}